IRIDIUM 26              
1 24903U 97043A   25287.66171278  .00000631  00000+0  20527-3 0  9991
2 24903  86.3942  60.3835 0002240  88.2758 271.8696 14.37250092473908
IRIDIUM 22              
1 24907U 97043E   25287.62095658  .00000571  00000+0  18974-3 0  9994
2 24907  86.3940  64.0445 0002058  88.5490 271.5943 14.36051270473910
DUMMY MASS 1            
1 24925U 97048A   25287.45796176  .00000734  00000+0  78572-4 0  9995
2 24925  86.3302  80.1388 0008986  85.2502 274.9749 14.87096527522850
DUMMY MASS 2            
1 24926U 97048B   25287.70921199  .00000681  00000+0  73154-4 0  9991
2 24926  86.3301  81.6535 0009760  93.4635 266.7707 14.86847594522668
IRIDIUM 29              
1 24944U 97051A   25287.87955041  .00000674  00000+0  22279-3 0  9999
2 24944  86.3899  93.6636 0001897  91.2021 268.9394 14.36574896470455
IRIDIUM 33              
1 24946U 97051C   25287.71468536  .00000449  00000+0  15079-3 0  9992
2 24946  86.3816  93.0036 0009542  56.6673 303.5435 14.34970120469882
IRIDIUM 28              
1 24948U 97051E   25287.91670029  .00000654  00000+0  21218-3 0  9998
2 24948  86.3906  91.0930 0002546  82.0502 278.0984 14.37481148471042
IRIDIUM 36              
1 24967U 97056C   25287.86120219  .00000532  00000+0  17052-3 0  9995
2 24967  86.3932 122.7499 0002173  81.2159 278.9285 14.37703532469414
